0 DELTA 1 DEB
1 07181U 73086ES  13282.51689741  .00000042  00000-0  54338-3 0   722
2 07181 102.4472 126.4699 0102013 190.6826 198.7327 12.56373730828681
0 DELTA 1 DEB
1 07181U 73086ES  13285.40408833  .00000058  00000-0  63444-3 0   730
2 07181 102.4465 129.5121 0101991 185.1944 297.4110 12.56374475829046
0 DELTA 1 DEB
1 07181U 73086ES  13287.46123457  .00000056  00000-0  62704-3 0   741
2 07181 102.4461 131.6802 0101954 181.3176 241.7925 12.56375151829303
0 DELTA 1 DEB
1 07181U 73086ES  13290.49889249  .00000051  00000-0  59668-3 0   757
2 07181 102.4456 134.8808 0102012 175.5815 301.0027 12.56376052829684
0 DELTA 1 DEB
1 07181U 73086ES  13293.12780264  .00000053  00000-0  60676-3 0   761
2 07181 102.4455 137.6507 0101944 170.5624 311.5243 12.56376612830013
0 DELTA 1 DEB
1 07181U 73086ES  13295.19841817  .00000058  00000-0  63314-3 0   770
2 07181 102.4454 139.8324 0101923 166.6263 316.8751 12.56377060830273
